TDRS 3
1 19548U 88091B   26210.23414642 -.00000292  00000+0  00000+0 0  9992
2 19548  12.5700 340.7166 0037214 354.9137   6.6835  1.00276526125814
HST
1 20580U 90037B   26210.05780545  .00006477  00000+0  20129-3 0  9999
2 20580  28.4726 154.3021 0001688 251.5991 108.4422 15.31192448794994
TDRS 5
1 21639U 91054B   26210.28763363  .00000091  00000+0  00000+0 0  9997
2 21639  14.0657 353.4598 0007681 250.8636 358.6939  1.00280285128139
TDRS 6
1 22314U 93003B   26210.23483976 -.00000290  00000+0  00000+0 0  9990
2 22314  14.1837 356.7409 0009007 188.1432 160.7519  1.00274613122823
TDRS 7
1 23613U 95035B   26209.91016865 -.00000234  00000+0  00000+0 0  9990
2 23613  13.3600 347.8975 0010850  88.6255 286.9327  1.00270195113671
ISS (ZARYA)
1 25544U 98067A   26210.12010945  .00008919  00000+0  16839-3 0  9999
2 25544  51.6320  92.5793 0007055 349.1886  10.8949 15.49239716578255
TERRA
1 25994U 99068A   26210.27134350  .00000400  00000+0  90380-4 0  9994
2 25994  97.9432 258.1436 0003715  95.4398 329.0212 14.61133516415750
TDRS 8
1 26388U 00034A   26210.00352590 -.00000193  00000+0  00000+0 0  9991
2 26388  12.7480  30.9591 0003179  45.4482 316.2972  1.00269721 95603
TIMED
1 26998U 01055B   26210.15720879  .00001283  00000+0  11982-3 0  9992
2 26998  74.0680 150.5084 0002427 284.6704  75.4212 14.95373353337096
AQUA
1 27424U 02022A   26210.29046163  .00000788  00000+0  16652-3 0  9992
2 27424  98.4310 180.4222 0001492 100.6732  32.0969 14.62147382289422
SORCE
1 27651U 03004A   26209.84469367  .00003048  00000+0  22738-3 0  9993
2 27651  39.9920  23.9675 0017795 346.6847  13.3476 15.03908052278176
AURA
1 28376U 04026A   26210.23209517  .00000787  00000+0  16891-3 0  9997
2 28376  98.3441 167.0408 0001521  92.8812 267.2562 14.61386476172356
SWIFT
1 28485U 04047A   26209.34894993  .00071808  00000+0  50063-3 0  9990
2 28485  20.5504 226.4139 0002510 170.1688 189.8808 15.72560065193340
THEMIS A
1 30580U 07004A   26200.30138716 -.00000547  00000+0  00000+0 0  9991
2 30580   8.7612 106.9403 8357082 205.5446  59.6753  0.87844000 41566
THEMIS D
1 30797U 07004D   26209.58702257 -.00000627  00000+0  00000+0 0  9996
2 30797   7.9578  78.3052 8323242 237.5097  13.9113  0.87589110 41435
THEMIS E
1 30798U 07004E   26184.97903470 -.00000400  00000+0  00000+0 0  9991
2 30798   6.5283  97.0944 8437049 218.5457  13.1584  0.88041892 66063
FGRST (GLAST)
1 33053U 08029A   26209.87015632  .00003211  00000+0  11470-3 0  9996
2 33053  25.5823 275.0165 0008556  98.5020 261.6488 15.24142152  2054
TDRS 11
1 39070U 13004A   26210.29805691  .00000082  00000+0  00000+0 0  9996
2 39070   3.5829  31.9058 0004920  31.8291 176.1430  1.00268146 47116
TDRS 12
1 39504U 14004A   26210.23579310 -.00000266  00000+0  00000+0 0  9994
2 39504   4.0187  19.7399 0004814 197.4639 133.6492  1.00268657 44693
GPM-CORE
1 39574U 14009C   26210.22092655  .00007249  00000+0  15683-3 0  9991
2 39574  64.9706 167.2736 0010775 265.8822  94.1087 15.45200807704302
MMS 1
1 40482U 15011A   26210.33335648 -.00001755  00000+0  00000+0 0  9999
2 40482  72.5963 348.2914 8298282 168.1836 278.3580  0.28281468  1378
MMS 2
1 40483U 15011B   26210.33335648 -.00001756  00000+0  00000+0 0  9991
2 40483  72.6003 348.2903 8301102 168.1863 278.3432  0.28281458  1374
MMS 3
1 40484U 15011C   26210.33335648 -.00001754  00000+0  00000+0 0  9990
2 40484  72.5989 348.3018 8299293 168.2003 278.2891  0.28290685  1379
MMS 4
1 40485U 15011D   26210.33335648 -.00001755  00000+0  00000+0 0  9992
2 40485  72.5945 348.2853 8299253 168.2101 278.2863  0.28290683  1370
TDRS 13
1 42915U 17047A   26210.24151313 -.00000094  00000+0  00000+0 0  9993
2 42915   3.4636   3.7298 0015138 113.5781 265.1506  1.00272676 32773
NOAA 20 (JPSS-1)
1 43013U 17073A   26210.22257152  .00000056  00000+0  47706-4 0  9994
2 43013  98.7774 149.3132 0001812 108.3110 251.8263 14.19518731450437
